start=new Date('2021-09-30T00:00:00.000Z').valueOf();
sats=[{"OBJECT_TYPE":"PAYLOAD","MEAN_MOTION":"15.06387504","GP_ID":"185800378","TIME_SYSTEM":"UTC","REV_AT_EPOCH":"2781","INCLINATION":"53.0561","ECCENTRICITY":"0.00012140","OBJECT_ID":"2021-027BE","NORAD_CAT_ID":"48144","MEAN_ANOMALY":"308.4294","LAUNCH_DATE":"2021-04-07","PERIOD":"95.593","RCS_SIZE":"LARGE","COUNTRY_CODE":"US","ARG_OF_PERICENTER":"51.6804","CLASSIFICATION_TYPE":"U","EPHEMERIS_TYPE":"0","ELEMENT_SET_NO":"999","MEAN_MOTION_DDOT":"0.0000000000000","BSTAR":"0.00004091800000","FILE":"3135282","MEAN_ELEMENT_THEORY":"SGP4","OBJECT_NAME":"STARLINK-2487","TLE_LINE1":"1 48144U 21027BE  21272.59448002  .00000328  00000-0  40918-4 0  9998","REF_FRAME":"TEME","MEAN_MOTION_DOT":"0.00000328","PERIAPSIS":"546.411","DECAY_DATE":null,"SEMIMAJOR_AXIS":"6925.387","RA_OF_ASC_NODE":"233.4846","EPOCH":"2021-09-29T14:16:03.073728","SITE":"AFETR","APOAPSIS":"548.093","CENTER_NAME":"EARTH","TLE_LINE2":"2 48144  53.0561 233.4846 0001214  51.6804 308.4294 15.06387504 27812"},{"RA_OF_ASC_NODE":"234.6495","SEMIMAJOR_AXIS":"6925.373","DECAY_DATE":null,"PERIAPSIS":"546.155","CENTER_NAME":"EARTH","EPOCH":"2021-09-29T07:59:11.776416","SITE":"AFETR","APOAPSIS":"548.322","TLE_LINE2":"2 48145  53.0537 234.6495 0001565  62.8474 297.2675 15.06391878 28172","TLE_LINE1":"1 48145U 21027BF  21272.33277519  .00000988  00000-0  85223-4 0  9994","OBJECT_NAME":"STARLINK-2488","FILE":"3134986","MEAN_ELEMENT_THEORY":"SGP4","REF_FRAME":"TEME","MEAN_MOTION_DOT":"0.00000988","LAUNCH_DATE":"2021-04-07","PERIOD":"95.593","OBJECT_ID":"2021-027BF","MEAN_ANOMALY":"297.2675","NORAD_CAT_ID":"48145","COUNTRY_CODE":"US","RCS_SIZE":"LARGE","CLASSIFICATION_TYPE":"U","ARG_OF_PERICENTER":"62.8474","MEAN_MOTION_DDOT":"0.0000000000000","ELEMENT_SET_NO":"999","BSTAR":"0.00008522300000","EPHEMERIS_TYPE":"0","OBJECT_TYPE":"PAYLOAD","MEAN_MOTION":"15.06391878","TIME_SYSTEM":"UTC","REV_AT_EPOCH":"2817","GP_ID":"185792714","INCLINATION":"53.0537","ECCENTRICITY":"0.00015650"},{"TLE_LINE1":"1 48146U 21027BG  21272.33092850 -.00000370  00000-0 -59764-5 0  9997","FILE":"3134986","MEAN_ELEMENT_THEORY":"SGP4","OBJECT_NAME":"STARLINK-2489","REF_FRAME":"TEME","MEAN_MOTION_DOT":"-0.00000370","RA_OF_ASC_NODE":"254.6588","DECAY_DATE":null,"SEMIMAJOR_AXIS":"6925.387","PERIAPSIS":"546.401","CENTER_NAME":"EARTH","APOAPSIS":"548.104","EPOCH":"2021-09-29T07:56:32.222400","SITE":"AFETR","TLE_LINE2":"2 48146  53.0542 254.6588 0001230  64.8762 295.2354 15.06387309 27899","MEAN_MOTION":"15.06387309","OBJECT_TYPE":"PAYLOAD","REV_AT_EPOCH":"2789","TIME_SYSTEM":"UTC","GP_ID":"185791462","INCLINATION":"53.0542","ECCENTRICITY":"0.00012300","PERIOD":"95.593","LAUNCH_DATE":"2021-04-07","NORAD_CAT_ID":"48146","MEAN_ANOMALY":"295.2354","OBJECT_ID":"2021-027BG","COUNTRY_CODE":"US","RCS_SIZE":"LARGE","CLASSIFICATION_TYPE":"U","ARG_OF_PERICENTER":"64.8762","BSTAR":"-0.00000597640000","ELEMENT_SET_NO":"999","MEAN_MOTION_DDOT":"0.0000000000000","EPHEMERIS_TYPE":"0"},{"MEAN_MOTION":"15.06398051","OBJECT_TYPE":"PAYLOAD","TIME_SYSTEM":"UTC","REV_AT_EPOCH":"2783","GP_ID":"185792212","INCLINATION":"53.0533","ECCENTRICITY":"0.00014120","PERIOD":"95.592","LAUNCH_DATE":"2021-04-07","MEAN_ANOMALY":"302.1987","NORAD_CAT_ID":"48147","OBJECT_ID":"2021-027BH","COUNTRY_CODE":"US","RCS_SIZE":"LARGE","CLASSIFICATION_TYPE":"U","ARG_OF_PERICENTER":"57.9139","BSTAR":"0.00010410000000","ELEMENT_SET_NO":"999","MEAN_MOTION_DDOT":"0.0000000000000","EPHEMERIS_TYPE":"0","TLE_LINE1":"1 48147U 21027BH  21272.39497190  .00001269  00000-0  10410-3 0  9999","OBJECT_NAME":"STARLINK-2490","FILE":"3134986","MEAN_ELEMENT_THEORY":"SGP4","REF_FRAME":"TEME","MEAN_MOTION_DOT":"0.00001269","RA_OF_ASC_NODE":"259.2599","PERIAPSIS":"546.242","DECAY_DATE":null,"SEMIMAJOR_AXIS":"6925.355","CENTER_NAME":"EARTH","APOAPSIS":"548.197","SITE":"AFETR","EPOCH":"2021-09-29T09:28:45.572160","TLE_LINE2":"2 48147  53.0533 259.2599 0001412  57.9139 302.1987 15.06398051 27836"},{"INCLINATION":"53.0564","ECCENTRICITY":"0.00012080","MEAN_MOTION":"15.06408471","OBJECT_TYPE":"PAYLOAD","GP_ID":"185792464","REV_AT_EPOCH":"2788","TIME_SYSTEM":"UTC","ARG_OF_PERICENTER":"65.1049","CLASSIFICATION_TYPE":"U","EPHEMERIS_TYPE":"0","BSTAR":"0.00017182000000","ELEMENT_SET_NO":"999","MEAN_MOTION_DDOT":"0.0000000000000","NORAD_CAT_ID":"48148","MEAN_ANOMALY":"295.0066","OBJECT_ID":"2021-027BJ","PERIOD":"95.592","LAUNCH_DATE":"2021-04-07","RCS_SIZE":"LARGE","COUNTRY_CODE":"US","MEAN_MOTION_DOT":"0.00002279","OBJECT_NAME":"STARLINK-2491","FILE":"3134986","MEAN_ELEMENT_THEORY":"SGP4","TLE_LINE1":"1 48148U 21027BJ  21272.36409840  .00002279  00000-0  17182-3 0  9997","REF_FRAME":"TEME","APOAPSIS":"548.024","EPOCH":"2021-09-29T08:44:18.101760","SITE":"AFETR","CENTER_NAME":"EARTH","TLE_LINE2":"2 48148  53.0564 254.5207 0001208  65.1049 295.0066 15.06408471 27880","DECAY_DATE":null,"SEMIMAJOR_AXIS":"6925.323","PERIAPSIS":"546.351","RA_OF_ASC_NODE":"254.5207"},{"RA_OF_ASC_NODE":"234.7920","SEMIMAJOR_AXIS":"6925.337","DECAY_DATE":null,"PERIAPSIS":"546.431","CENTER_NAME":"EARTH","EPOCH":"2021-09-29T07:27:20.233440","SITE":"AFETR","APOAPSIS":"547.973","TLE_LINE2":"2 48149  53.0454 234.7920 0001113  52.5422 307.5668 15.06403805 28166","TLE_LINE1":"1 48149U 21027BK  21272.31065085  .00001646  00000-0  12932-3 0  9997","FILE":"3134986","OBJECT_NAME":"STARLINK-2492","MEAN_ELEMENT_THEORY":"SGP4","REF_FRAME":"TEME","MEAN_MOTION_DOT":"0.00001646","LAUNCH_DATE":"2021-04-07","PERIOD":"95.592","OBJECT_ID":"2021-027BK","MEAN_ANOMALY":"307.5668","NORAD_CAT_ID":"48149","COUNTRY_CODE":"US","RCS_SIZE":"LARGE","CLASSIFICATION_TYPE":"U","ARG_OF_PERICENTER":"52.5422","ELEMENT_SET_NO":"999","MEAN_MOTION_DDOT":"0.0000000000000","BSTAR":"0.00012932000000","EPHEMERIS_TYPE":"0","OBJECT_TYPE":"PAYLOAD","MEAN_MOTION":"15.06403805","REV_AT_EPOCH":"2816","TIME_SYSTEM":"UTC","GP_ID":"185793214","INCLINATION":"53.0454","ECCENTRICITY":"0.00011130"},{"CENTER_NAME":"EARTH","SITE":"AFETR","EPOCH":"2021-09-29T07:32:39.613632","APOAPSIS":"548.240","TLE_LINE2":"2 48150  53.0654 234.7028 0001495  62.1107 298.0033 15.06402771 27776","RA_OF_ASC_NODE":"234.7028","DECAY_DATE":null,"SEMIMAJOR_AXIS":"6925.340","PERIAPSIS":"546.170","MEAN_MOTION_DOT":"0.00001032","TLE_LINE1":"1 48150U 21027BL  21272.31434738  .00001032  00000-0  88189-4 0  9991","FILE":"3135438","MEAN_ELEMENT_THEORY":"SGP4","OBJECT_NAME":"STARLINK-2493","REF_FRAME":"TEME","CLASSIFICATION_TYPE":"U","ARG_OF_PERICENTER":"62.1107","ELEMENT_SET_NO":"999","MEAN_MOTION_DDOT":"0.0000000000000","BSTAR":"0.00008818900000","EPHEMERIS_TYPE":"0","LAUNCH_DATE":"2021-04-07","PERIOD":"95.592","OBJECT_ID":"2021-027BL","MEAN_ANOMALY":"298.0033","NORAD_CAT_ID":"48150","COUNTRY_CODE":"US","RCS_SIZE":"LARGE","INCLINATION":"53.0654","ECCENTRICITY":"0.00014950","OBJECT_TYPE":"PAYLOAD","MEAN_MOTION":"15.06402771","REV_AT_EPOCH":"2777","TIME_SYSTEM":"UTC","GP_ID":"185803557"},{"REF_FRAME":"TEME","FILE":"3134986","OBJECT_NAME":"STARLINK-2503","MEAN_ELEMENT_THEORY":"SGP4","TLE_LINE1":"1 48151U 21027BM  21272.31803726  .00000797  00000-0  72380-4 0  9992","MEAN_MOTION_DOT":"0.00000797","DECAY_DATE":null,"SEMIMAJOR_AXIS":"6925.351","PERIAPSIS":"546.105","RA_OF_ASC_NODE":"234.6972","TLE_LINE2":"2 48151  53.0636 234.6972 0001604  64.4364 295.6791 15.06399140 28170","APOAPSIS":"548.327","EPOCH":"2021-09-29T07:37:58.419264","SITE":"AFETR","CENTER_NAME":"EARTH","GP_ID":"185791713","TIME_SYSTEM":"UTC","REV_AT_EPOCH":"2817","MEAN_MOTION":"15.06399140","OBJECT_TYPE":"PAYLOAD","ECCENTRICITY":"0.00016040","INCLINATION":"53.0636","RCS_SIZE":"LARGE","COUNTRY_CODE":"US","NORAD_CAT_ID":"48151","MEAN_ANOMALY":"295.6791","OBJECT_ID":"2021-027BM","PERIOD":"95.592","LAUNCH_DATE":"2021-04-07","EPHEMERIS_TYPE":"0","BSTAR":"0.00007238000000","MEAN_MOTION_DDOT":"0.0000000000000","ELEMENT_SET_NO":"999","ARG_OF_PERICENTER":"64.4364","CLASSIFICATION_TYPE":"U"},{"ECCENTRICITY":"0.00013350","INCLINATION":"53.0522","REV_AT_EPOCH":"379","TIME_SYSTEM":"UTC","GP_ID":"185792729","MEAN_MOTION":"15.32361743","OBJECT_TYPE":"PAYLOAD","BSTAR":"-0.03693400000000","ELEMENT_SET_NO":"999","MEAN_MOTION_DDOT":"0.0000000000000","EPHEMERIS_TYPE":"0","CLASSIFICATION_TYPE":"U","ARG_OF_PERICENTER":"57.5653","COUNTRY_CODE":"US","RCS_SIZE":"LARGE","PERIOD":"93.973","LAUNCH_DATE":"2021-04-29","MEAN_ANOMALY":"267.6802","NORAD_CAT_ID":"48276","OBJECT_ID":"2021-036A","MEAN_MOTION_DOT":"-0.01073057","REF_FRAME":"TEME","TLE_LINE1":"1 48276U 21036A   21272.58334491 -.01073057  00000-0 -36934-1 0  9991","OBJECT_NAME":"STARLINK-2567","FILE":"3134986","MEAN_ELEMENT_THEORY":"SGP4","TLE_LINE2":"2 48276  53.0522 129.5210 0001335  57.5653 267.6802 15.32361743  3794","CENTER_NAME":"EARTH","APOAPSIS":"469.684","EPOCH":"2021-09-29T14:00:01.000224","SITE":"AFETR","RA_OF_ASC_NODE":"129.5210","DECAY_DATE":null,"SEMIMAJOR_AXIS":"6846.905","PERIAPSIS":"467.856"},{"CLASSIFICATION_TYPE":"U","ARG_OF_PERICENTER":"5.7349","ELEMENT_SET_NO":"999","MEAN_MOTION_DDOT":"0.0000000000000","BSTAR":"-0.00529520000000","EPHEMERIS_TYPE":"0","LAUNCH_DATE":"2021-04-29","PERIOD":"91.517","OBJECT_ID":"2021-036B","MEAN_ANOMALY":"168.8200","NORAD_CAT_ID":"48277","COUNTRY_CODE":"US","RCS_SIZE":"LARGE","INCLINATION":"53.0495","ECCENTRICITY":"0.00037270","OBJECT_TYPE":"PAYLOAD","MEAN_MOTION":"15.73484539","TIME_SYSTEM":"UTC","REV_AT_EPOCH":"379","GP_ID":"185791477","CENTER_NAME":"EARTH","EPOCH":"2021-09-29T14:00:01.000224","SITE":"AFETR","APOAPSIS":"351.456","TLE_LINE2":"2 48277  53.0495 126.7246 0003727   5.7349 168.8200 15.73484539  3794","RA_OF_ASC_NODE":"126.7246","DECAY_DATE":null,"SEMIMAJOR_AXIS":"6727.084","PERIAPSIS":"346.442","MEAN_MOTION_DOT":"-0.00694612","TLE_LINE1":"1 48277U 21036B   21272.58334491 -.00694612  00000-0 -52952-2 0  9996","FILE":"3134986","OBJECT_NAME":"STARLINK-2569","MEAN_ELEMENT_THEORY":"SGP4","REF_FRAME":"TEME"}];
